"{\n    \"CCSDS_OMM_VERS\": \"2.0\",\n    \"COMMENT\": \"GENERATED VIA SPACE-TRACK.ORG API\",\n    \"CREATION_DATE\": \"2025-08-30T03:38:48\",\n    \"ORIGINATOR\": \"18 SPCS\",\n    \"OBJECT_NAME\": \"GALILEO-FM2\",\n    \"OBJECT_ID\": \"2011-060B\",\n    \"CENTER_NAME\": \"EARTH\",\n    \"REF_FRAME\": \"TEME\",\n    \"TIME_SYSTEM\": \"UTC\",\n    \"MEAN_ELEMENT_THEORY\": \"SGP4\",\n    \"EPOCH\": \"2025-08-29T19:52:05.250720\",\n    \"MEAN_MOTION\": \"1.7047602711\",\n    \"ECCENTRICITY\": \"0.00017070424\",\n    \"INCLINATION\": \"57.079698\",\n    \"RA_OF_ASC_NODE\": \"349.66713\",\n    \"ARG_OF_PERICENTER\": \"316.46063\",\n    \"MEAN_ANOMALY\": \"43.318605\",\n    \"EPHEMERIS_TYPE\": \"0\",\n    \"CLASSIFICATION_TYPE\": \"U\",\n    \"NORAD_CAT_ID\": \"37847\",\n    \"ELEMENT_SET_NO\": \"999\",\n    \"REV_AT_EPOCH\": \"8615\",\n    \"BSTAR\": \"0\",\n    \"MEAN_MOTION_DOT\": \"-0.000000988571\",\n    \"MEAN_MOTION_DDOT\": \"0\",\n    \"TLE_LINE0\": \"0 GALILEO-FM2\",\n    \"TLE_LINE1\": \"1 37847U 11060B   25241.82783855 -.00000099  00000-0  00000-0 0  9996\",\n    \"TLE_LINE2\": \"2 37847  57.0797 349.6671 0001707 316.4606  43.3186  1.70476027 86152\",\n    \"SEMIMAJOR_AXIS\": \"29600.085\",\n    \"PERIOD\": \"844.694\",\n    \"APOAPSIS\": \"23227.003\",\n    \"PERIAPSIS\": \"23216.898\",\n    \"OBJECT_TYPE\": \"PAYLOAD\",\n    \"DECAYED\": \"0\"\n}"